[{"OBJECT_NAME":"TIANMU-1 22","OBJECT_ID":"2023-208D","EPOCH":"2026-03-09T22:39:05.738688","MEAN_MOTION":15.29457749,"ECCENTRICITY":0.00031332,"INCLINATION":97.4379,"RA_OF_ASC_NODE":184.9419,"ARG_OF_PERICENTER":351.9312,"MEAN_ANOMALY":8.1877,"EPHEMERIS_TYPE":0,"CLASSIFICATION_TYPE":"U","NORAD_CAT_ID":58663,"ELEMENT_SET_NO":999,"REV_AT_EPOCH":12215,"BSTAR":0.00038239675,"MEAN_MOTION_DOT":0.00010851,"MEAN_MOTION_DDOT":0},{"OBJECT_NAME":"STARLINK-36109","OBJECT_ID":"2025-286U","EPOCH":"2026-03-09T23:14:42.804672","MEAN_MOTION":15.3021639,"ECCENTRICITY":0.0001592,"INCLINATION":53.1605,"RA_OF_ASC_NODE":356.8575,"ARG_OF_PERICENTER":118.9935,"MEAN_ANOMALY":241.1226,"EPHEMERIS_TYPE":0,"CLASSIFICATION_TYPE":"U","NORAD_CAT_ID":66943,"ELEMENT_SET_NO":999,"REV_AT_EPOCH":1539,"BSTAR":0.00097796483,"MEAN_MOTION_DOT":0.00028732,"MEAN_MOTION_DDOT":0}]
